{
    "links": {
        "self": "http://www.neowsapp.com/rest/v1/neo/3656994?api_key=iIulBulltgU6a56xZRHN4H3l9WmuAYTsLGpBGhQ2"
    },
    "id": "3656994",
    "neo_reference_id": "3656994",
    "name": "(2014 BT32)",
    "designation": "2014 BT32",
    "nasa_jpl_url": "http://ssd.jpl.nasa.gov/sbdb.cgi?sstr=3656994",
    "absolute_magnitude_h": 25.0,
    "estimated_diameter": {
        "kilometers": {
            "estimated_diameter_min": 0.02658,
            "estimated_diameter_max": 0.0594346868
        },
        "meters": {
            "estimated_diameter_min": 26.58,
            "estimated_diameter_max": 59.4346868419
        },
        "miles": {
            "estimated_diameter_min": 0.0165160412,
            "estimated_diameter_max": 0.0369309908
        },
        "feet": {
            "estimated_diameter_min": 87.2047272,
            "estimated_diameter_max": 194.9956979785
        }
    },
    "is_potentially_hazardous_asteroid": false,
    "close_approach_data": [
        {
            "close_approach_date": "2013-07-31",
            "close_approach_date_full": "2013-Jul-31 02:03",
            "epoch_date_close_approach": 1375236180000,
            "relative_velocity": {
                "kilometers_per_second": "4.6324236876",
                "kilometers_per_hour": "16676.7252754086",
                "miles_per_hour": "10362.2685468226"
            },
            "miss_distance": {
                "astronomical": "0.0979498358",
                "lunar": "38.1024861262",
                "kilometers": "14653086.802529746",
                "miles": "9105005.9343566548"
            },
            "orbiting_body": "Earth"
        },
        {
            "close_approach_date": "2013-12-31",
            "close_approach_date_full": "2013-Dec-31 17:52",
            "epoch_date_close_approach": 1388512320000,
            "relative_velocity": {
                "kilometers_per_second": "5.0683525129",
                "kilometers_per_hour": "18246.0690463069",
                "miles_per_hour": "11337.3977360233"
            },
            "miss_distance": {
                "astronomical": "0.1031681299",
                "lunar": "40.1324025311",
                "kilometers": "15433732.484923313",
                "miles": "9590076.6683671994"
            },
            "orbiting_body": "Earth"
        },
        {
            "close_approach_date": "2076-08-03",
            "close_approach_date_full": "2076-Aug-03 21:40",
            "epoch_date_close_approach": 3363716400000,
            "relative_velocity": {
                "kilometers_per_second": "5.7707253743",
                "kilometers_per_hour": "20774.6113475274",
                "miles_per_hour": "12908.5355898011"
            },
            "miss_distance": {
                "astronomical": "0.0582236957",
                "lunar": "22.6490176273",
                "kilometers": "8710140.860248159",
                "miles": "5412230.5620922342"
            },
            "orbiting_body": "Earth"
        }
    ],
    "orbital_data": {
        "orbit_id": "4",
        "orbit_determination_date": "2017-04-06 08:42:44",
        "first_observation_date": "2014-01-23",
        "last_observation_date": "2014-01-27",
        "data_arc_in_days": 4,
        "observations_used": 12,
        "orbit_uncertainty": "8",
        "minimum_orbit_intersection": ".0560157",
        "jupiter_tisserand_invariant": "5.547",
        "epoch_osculation": "2456682.5",
        "eccentricity": ".1416857993775593",
        "semi_major_axis": "1.121897394665476",
        "inclination": "8.588998726812617",
        "ascending_node_longitude": "117.7234067721996",
        "orbital_period": "434.0383822316531",
        "perihelion_distance": ".9629404654826971",
        "perihelion_argument": "267.4122316536229",
        "aphelion_distance": "1.280854323848255",
        "perihelion_time": "2456583.615124378394",
        "mean_anomaly": "82.01706734032257",
        "mean_motion": ".829419735068182",
        "equinox": "J2000",
        "orbit_class": {
            "orbit_class_type": "APO",
            "orbit_class_description": "Near-Earth asteroid orbits which cross the Earth’s orbit similar to that of 1862 Apollo",
            "orbit_class_range": "a (semi-major axis) > 1.0 AU; q (perihelion) < 1.017 AU"
        }
    },
    "is_sentry_object": false
}